{
  "norad_id": 59741,
  "name": "STARLINK-31818",
  "history": [
    {
      "epoch": "2026-03-28T16:35:15.610560Z",
      "apogee_km": 483.80753817824825,
      "perigee_km": 482.318794966106,
      "latitude_deg": 4.586756910664264e-05,
      "longitude_deg": 1.4791376810633257,
      "height_km": 482.8301122898129,
      "semi_major_axis_km": 6861.200166572177,
      "eccentricity": 0.00010849,
      "inclination_deg": 43.0031,
      "raan_deg": 76.4021,
      "arg_perigee_deg": 270.7567,
      "mean_anomaly_deg": 89.3161,
      "mean_motion_rev_day": 15.27575301
    }
  ]
}